NORAD_CAT_ID,OBJECT_NAME,OBJECT_TYPE,EPOCH,MEAN_MOTION,ECCENTRICITY,INCLINATION,RA_OF_ASC_NODE,ARG_OF_PERICENTER,MEAN_ANOMALY,BSTAR,MEAN_MOTION_DOT,MEAN_MOTION_DDOT,TLE_LINE0,TLE_LINE1,TLE_LINE2,SEMIMAJOR_AXIS,PERIOD,APOGEE,PERIGEE,DECAYED
49753.0,STARLINK-3200,PAYLOAD,2023-11-09 20:51:43,15.08844802,0.0001309,53.2181,8.6044,84.6923,275.4219,-7.8452e-05,-1.536e-05,0.0,0 STARLINK-3200,1 49753U 21115AF  23313.86925103 -.00001536  00000-0 -78452-4 0  9991,2 49753  53.2181   8.6044 0001309  84.6923 275.4219 15.08844802107094,6917.866,95.437,540.636,538.825,0.0
49753.0,STARLINK-3200,PAYLOAD,2023-11-10 00:02:29,15.08844269,0.0001573,53.2172,8.0124,88.4379,271.6793,-0.00015574,-2.766e-05,0.0,0 STARLINK-3200,1 49753U 21115AF  23314.00173173 -.00002766  00000-0 -15574-3 0  9991,2 49753  53.2172   8.0124 0001573  88.4379 271.6793 15.08844269108225,6917.867,95.437,540.821,538.644,0.0
49753.0,STARLINK-3200,PAYLOAD,2023-11-10 12:45:34,15.08843141,0.000144,53.2175,5.6312,82.7354,277.3802,-0.00011056,-2.047e-05,0.0,0 STARLINK-3200,1 49753U 21115AF  23314.53165362 -.00002047  00000-0 -11056-3 0  9993,2 49753  53.2175   5.6312 0001440  82.7354 277.3802 15.08843141107190,6917.871,95.437,540.732,538.74,0.0
49753.0,STARLINK-3200,PAYLOAD,2023-11-11 03:04:02,15.08844701,0.0001485,53.2178,2.9552,86.4061,273.7101,8.1765e-05,1.014e-05,0.0,0 STARLINK-3200,1 49753U 21115AF  23315.12781243  .00001014  00000-0  81765-4 0  9997,2 49753  53.2178   2.9552 0001485  86.4061 273.7101 15.08844701108392,6917.866,95.437,540.758,538.704,0.0
49753.0,STARLINK-3200,PAYLOAD,2023-11-11 11:00:58,15.08852433,0.0001494,53.2175,1.4685,89.4617,270.6547,0.0002858,4.265e-05,0.0,0 STARLINK-3200,1 49753U 21115AF  23315.45900966  .00004265  00000-0  28580-3 0  9994,2 49753  53.2175   1.4685 0001494  89.4617 270.6547 15.08852433107334,6917.842,95.437,540.741,538.674,0.0
49753.0,STARLINK-3200,PAYLOAD,2023-11-11 20:33:17,15.08842132,0.0001819,53.2173,359.6861,74.4731,285.6461,0.00024712,3.647e-05,0.0,0 STARLINK-3200,1 49753U 21115AF  23315.85645513  .00003647  00000-0  24712-3 0  9998,2 49753  53.2173 359.6861 0001819  74.4731 285.6461 15.08842132107390,6917.874,95.437,540.997,538.481,0.0
49753.0,STARLINK-3200,PAYLOAD,2023-11-12 09:16:23,15.0883753,0.0001815,53.2179,357.3063,82.4452,277.6746,0.00014964,2.094e-05,0.0,0 STARLINK-3200,1 49753U 21115AF  23316.38637934  .00002094  00000-0  14964-3 0  9998,2 49753  53.2179 357.3063 0001815  82.4452 277.6746 15.08837530108585,6917.888,95.438,541.009,538.497,0.0
49753.0,STARLINK-3200,PAYLOAD,2023-11-12 20:24:04,15.08845364,0.000174,53.2187,355.2218,86.0815,274.0376,0.00015427,2.168e-05,0.0,0 STARLINK-3200,1 49753U 21115AF  23316.85005360  .00002168  00000-0  15427-3 0  9999,2 49753  53.2187 355.2218 0001740  86.0815 274.0376 15.08845364107542,6917.864,95.437,540.933,538.525,0.0
49753.0,STARLINK-3200,PAYLOAD,2023-11-13 02:45:36,15.08850265,0.0001638,53.2178,354.0329,86.4861,273.6319,0.00018969,2.733e-05,0.0,0 STARLINK-3200,1 49753U 21115AF  23317.11501030  .00002733  00000-0  18969-3 0  9996,2 49753  53.2178 354.0329 0001638  86.4861 273.6319 15.08850265108698,6917.849,95.437,540.847,538.581,0.0
49753.0,STARLINK-3200,PAYLOAD,2023-11-13 12:17:55,15.08860083,0.0001704,53.2178,352.2478,91.5791,268.5396,0.00039557,6.016e-05,0.0,0 STARLINK-3200,1 49753U 21115AF  23317.51244470  .00006016  00000-0  39557-3 0  9996,2 49753  53.2178 352.2478 0001704  91.5791 268.5396 15.08860083107647,6917.819,95.436,540.863,538.505,0.0
49753.0,STARLINK-3200,PAYLOAD,2023-11-14 02:36:23,15.08842507,0.00016,53.2173,349.5717,82.6533,277.4641,0.00010196,1.335e-05,0.0,0 STARLINK-3200,1 49753U 21115AF  23318.10861101  .00001335  00000-0  10196-3 0  9995,2 49753  53.2173 349.5717 0001600  82.6533 277.4641 15.08842507108843,6917.873,95.437,540.845,538.631,0.0
49753.0,STARLINK-3200,PAYLOAD,2023-11-14 08:57:56,15.08844546,0.0001587,53.2174,348.3823,90.1988,269.9186,8.6518e-05,1.089e-05,0.0,0 STARLINK-3200,1 49753U 21115AF  23318.37356893  .00001089  00000-0  86518-4 0  9999,2 49753  53.2174 348.3823 0001587  90.1988 269.9186 15.08844546107777,6917.866,95.437,540.829,538.634,0.0
49753.0,STARLINK-3200,PAYLOAD,2023-11-15 02:27:11,15.08835557,0.000167,53.2175,345.1118,92.4307,267.6876,-3.2493e-05,-8.05e-06,0.0,0 STARLINK-3200,1 49753U 21115AF  23319.10221324 -.00000805  00000-0 -32493-4 0  9991,2 49753  53.2175 345.1118 0001670  92.4307 267.6876 15.08835557108991,6917.894,95.438,540.914,538.604,0.0
49753.0,STARLINK-3200,PAYLOAD,2023-11-15 07:13:20,15.08837378,0.0001691,53.2177,344.2198,92.9749,267.1437,-8.6071e-06,-4.25e-06,0.0,0 STARLINK-3200,1 49753U 21115AF  23319.30093342 -.00000425  00000-0 -86071-5 0  9990,2 49753  53.2177 344.2198 0001691  92.9749 267.1437 15.08837378107911,6917.888,95.438,540.923,538.584,0.0
49753.0,STARLINK-3200,PAYLOAD,2023-11-15 18:21:02,15.08837485,0.0001677,53.2183,342.1388,93.5295,266.5889,4.3416e-05,4.03e-06,0.0,0 STARLINK-3200,1 49753U 21115AF  23319.76461503  .00000403  00000-0  43416-4 0  9997,2 49753  53.2183 342.1388 0001677  93.5295 266.5889 15.08837485107983,6917.888,95.438,540.913,538.593,0.0
49753.0,STARLINK-3200,PAYLOAD,2023-11-16 08:39:31,15.08837536,0.0001706,53.2185,339.4627,95.1631,264.9556,0.00011238,1.501e-05,0.0,0 STARLINK-3200,1 49753U 21115AF  23320.36077701  .00001501  00000-0  11238-3 0  9994,2 49753  53.2185 339.4627 0001706  95.1631 264.9556 15.08837536109189,6917.888,95.438,540.933,538.573,0.0
49753.0,STARLINK-3200,PAYLOAD,2023-11-16 18:11:50,15.08835991,0.0001699,53.2185,337.6783,93.1993,266.9193,0.00011715,1.577e-05,0.0,0 STARLINK-3200,1 49753U 21115AF  23320.75821902  .00001577  00000-0  11715-3 0  9990,2 49753  53.2185 337.6783 0001699  93.1993 266.9193 15.08835991108138,6917.893,95.438,540.933,538.582,0.0
49753.0,STARLINK-3200,PAYLOAD,2023-11-17 10:05:41,15.08841365,0.000176,53.2183,334.7042,91.2112,268.9082,0.00014981,2.097e-05,0.0,0 STARLINK-3200,1 49753U 21115AF  23321.42061814  .00002097  00000-0  14981-3 0  9999,2 49753  53.2183 334.7042 0001760  91.2112 268.9082 15.08841365109348,6917.876,95.437,540.959,538.524,0.0
49753.0,STARLINK-3200,PAYLOAD,2023-11-17 18:02:37,15.08839399,0.0001831,53.2185,333.2171,87.6392,272.481,9.4344e-05,1.214e-05,0.0,0 STARLINK-3200,1 49753U 21115AF  23321.75181979  .00001214  00000-0  94344-4 0  9992,2 49753  53.2185 333.2171 0001831  87.6392 272.4810 15.08839399108280,6917.882,95.438,541.014,538.481,0.0
49753.0,STARLINK-3200,PAYLOAD,2023-11-18 09:56:28,15.08840194,0.0001801,53.2189,330.2425,87.5786,272.5413,8.277e-05,1.029e-05,0.0,0 STARLINK-3200,1 49753U 21115AF  23322.41422331  .00001029  00000-0  82770-4 0  9990,2 49753  53.2189 330.2425 0001801  87.5786 272.5413 15.08840194109495,6917.88,95.438,540.991,538.499,0.0
49753.0,STARLINK-3200,PAYLOAD,2023-11-18 17:53:24,15.08842523,0.0001821,53.2191,328.7561,88.2999,271.8202,0.0001128,1.508e-05,0.0,0 STARLINK-3200,1 49753U 21115AF  23322.74542112  .00001508  00000-0  11280-3 0  9995,2 49753  53.2191 328.7561 0001821  88.2999 271.8202 15.08842523108436,6917.873,95.437,540.997,538.478,0.0
49753.0,STARLINK-3200,PAYLOAD,2023-11-19 06:36:29,15.0883888,0.0001611,53.2171,326.3779,93.2179,266.8998,0.0002922,4.365e-05,0.0,0 STARLINK-3200,1 49753U 21115AF  23323.27534021  .00004365  00000-0  29220-3 0  9991,2 49753  53.2171 326.3779 0001611  93.2179 266.8998 15.08838880108518,6917.884,95.438,540.863,538.634,0.0
49753.0,STARLINK-3200,PAYLOAD,2023-11-19 17:44:10,15.08847825,0.0001574,53.2172,324.2972,90.8048,269.3125,9.6486e-05,1.248e-05,0.0,0 STARLINK-3200,1 49753U 21115AF  23323.73901513  .00001248  00000-0  96486-4 0  9992,2 49753  53.2172 324.2972 0001574  90.8048 269.3125 15.08847825109696,6917.856,95.437,540.81,538.633,0.0
49753.0,STARLINK-3200,PAYLOAD,2023-11-20 09:38:02,15.08848522,0.0001717,53.218,321.3214,97.0052,263.1136,0.00011571,1.554e-05,0.0,0 STARLINK-3200,1 49753U 21115AF  23324.40141338  .00001554  00000-0  11571-3 0  9999,2 49753  53.2180 321.3214 0001717  97.0052 263.1136 15.08848522108682,6917.854,95.437,540.907,538.532,0.0
49753.0,STARLINK-3200,PAYLOAD,2023-11-21 03:07:17,15.08842528,0.0001727,53.2177,318.0516,98.5727,261.5461,2.9513e-05,1.82e-06,0.0,0 STARLINK-3200,1 49753U 21115AF  23325.13005835  .00000182  00000-0  29513-4 0  9993,2 49753  53.2177 318.0516 0001727  98.5727 261.5461 15.08842528109901,6917.873,95.437,540.932,538.543,0.0
49753.0,STARLINK-3200,PAYLOAD,2023-11-21 09:28:49,15.08844205,0.0001817,53.2175,316.8595,105.2931,254.8262,7.0832e-05,8.39e-06,0.0,0 STARLINK-3200,1 49753U 21115AF  23325.39501538  .00000839  00000-0  70832-4 0  9991,2 49753  53.2175 316.8595 0001817 105.2931 254.8262 15.08844205108834,6917.868,95.437,540.99,538.476,0.0
49753.0,STARLINK-3200,PAYLOAD,2023-11-22 09:19:35,15.0885311,0.0001782,53.216,312.3981,109.7464,250.3721,0.00022247,3.256e-05,0.0,0 STARLINK-3200,1 49753U 21115AF  23326.38861036  .00003256  00000-0  22247-3 0  9995,2 49753  53.2160 312.3981 0001782 109.7464 250.3721 15.08853110110096,6917.84,95.437,540.938,538.473,0.0
49753.0,STARLINK-3200,PAYLOAD,2023-11-22 20:27:18,15.08843558,0.0001989,53.2173,310.3183,118.7755,241.3437,0.00015239,2.138e-05,0.0,0 STARLINK-3200,1 49753U 21115AF  23326.85229497  .00002138  00000-0  15239-3 0  9997,2 49753  53.2173 310.3183 0001989 118.7755 241.3437 15.08843558109057,6917.87,95.437,541.11,538.359,0.0
49753.0,STARLINK-3200,PAYLOAD,2023-11-23 02:48:51,15.0883683,0.0001704,53.2157,309.1258,102.5928,257.5255,-8.44e-07,-3.02e-06,0.0,0 STARLINK-3200,1 49753U 21115AF  23327.11725875 -.00000302  00000-0 -84400-6 0  9990,2 49753  53.2157 309.1258 0001704 102.5928 257.5255 15.08836830110207,6917.89,95.438,540.934,538.576,0.0
49753.0,STARLINK-3200,PAYLOAD,2023-11-23 09:10:23,15.08840586,0.0001721,53.2162,307.9372,92.0692,268.0497,6.0021e-05,6.67e-06,0.0,0 STARLINK-3200,1 49753U 21115AF  23327.38221729  .00000667  00000-0  60021-4 0  9991,2 49753  53.2162 307.9372 0001721  92.0692 268.0497 15.08840586109134,6917.879,95.438,540.934,538.553,0.0
